CCSDS_OMM_VERS = 2.0
CREATION_DATE  = 
ORIGINATOR     = 

OBJECT_NAME    = CYGNUS NG-23
OBJECT_ID      = 2025-208A
CENTER_NAME    = EARTH
REF_FRAME      = TEME
TIME_SYSTEM    = UTC
MEAN_ELEMENT_THEORY = SGP/SGP4

EPOCH          = 2025-12-28T20:32:34.982016
MEAN_MOTION    = 15.49919671
ECCENTRICITY   = .0003274
INCLINATION    = 51.6321
RA_OF_ASC_NODE = 62.6585
ARG_OF_PERICENTER = 316.0949
MEAN_ANOMALY   = 43.9780

EPHEMERIS_TYPE = 0
CLASSIFICATION_TYPE = U
NORAD_CAT_ID   = 65616
ELEMENT_SET_NO = 999
REV_AT_EPOCH   = 22
BSTAR          = .31500855E-3
MEAN_MOTION_DOT = .17513E-3
MEAN_MOTION_DDOT = 0

CCSDS_OMM_VERS = 2.0
CREATION_DATE  = 
ORIGINATOR     = 

OBJECT_NAME    = DRAGONFLY
OBJECT_ID      = 1998-067XH
CENTER_NAME    = EARTH
REF_FRAME      = TEME
TIME_SYSTEM    = UTC
MEAN_ELEMENT_THEORY = SGP/SGP4

EPOCH          = 2025-12-28T20:34:49.894752
MEAN_MOTION    = 15.78009610
ECCENTRICITY   = .000857
INCLINATION    = 51.6252
RA_OF_ASC_NODE = 52.8860
ARG_OF_PERICENTER = 11.7702
MEAN_ANOMALY   = 348.3498

EPHEMERIS_TYPE = 0
CLASSIFICATION_TYPE = U
NORAD_CAT_ID   = 65729
ELEMENT_SET_NO = 999
REV_AT_EPOCH   = 1570
BSTAR          = .15507956E-2
MEAN_MOTION_DOT = .27794E-2
MEAN_MOTION_DDOT = 0

CCSDS_OMM_VERS = 2.0
CREATION_DATE  = 
ORIGINATOR     = 

OBJECT_NAME    = 1998-067XK
OBJECT_ID      = 1998-067XK
CENTER_NAME    = EARTH
REF_FRAME      = TEME
TIME_SYSTEM    = UTC
MEAN_ELEMENT_THEORY = SGP/SGP4

EPOCH          = 2025-12-28T10:04:50.099520
MEAN_MOTION    = 15.68911796
ECCENTRICITY   = .0005104
INCLINATION    = 51.6293
RA_OF_ASC_NODE = 57.5001
ARG_OF_PERICENTER = 342.8254
MEAN_ANOMALY   = 17.2570

EPHEMERIS_TYPE = 0
CLASSIFICATION_TYPE = U
NORAD_CAT_ID   = 65731
ELEMENT_SET_NO = 999
REV_AT_EPOCH   = 1560
BSTAR          = .1111931E-2
MEAN_MOTION_DOT = .132128E-2
MEAN_MOTION_DDOT = 0

CCSDS_OMM_VERS = 2.0
CREATION_DATE  = 
ORIGINATOR     = 

OBJECT_NAME    = RSP-03
OBJECT_ID      = 1998-067XL
CENTER_NAME    = EARTH
REF_FRAME      = TEME
TIME_SYSTEM    = UTC
MEAN_ELEMENT_THEORY = SGP/SGP4

EPOCH          = 2025-12-28T23:06:26.741664
MEAN_MOTION    = 15.73117954
ECCENTRICITY   = .00062841
INCLINATION    = 51.6264
RA_OF_ASC_NODE = 53.6076
ARG_OF_PERICENTER = 353.9046
MEAN_ANOMALY   = 6.1875

EPHEMERIS_TYPE = 0
CLASSIFICATION_TYPE = U
NORAD_CAT_ID   = 65732
ELEMENT_SET_NO = 999
REV_AT_EPOCH   = 1571
BSTAR          = .13852316E-2
MEAN_MOTION_DOT = .198251E-2
MEAN_MOTION_DDOT = 0

CCSDS_OMM_VERS = 2.0
CREATION_DATE  = 
ORIGINATOR     = 

OBJECT_NAME    = GHS-01
OBJECT_ID      = 1998-067XM
CENTER_NAME    = EARTH
REF_FRAME      = TEME
TIME_SYSTEM    = UTC
MEAN_ELEMENT_THEORY = SGP/SGP4

EPOCH          = 2025-12-27T21:16:59.204640
MEAN_MOTION    = 15.82243780
ECCENTRICITY   = .000958
INCLINATION    = 51.6276
RA_OF_ASC_NODE = 56.9127
ARG_OF_PERICENTER = 10.1535
MEAN_ANOMALY   = 349.9659

EPHEMERIS_TYPE = 0
CLASSIFICATION_TYPE = U
NORAD_CAT_ID   = 65733
ELEMENT_SET_NO = 999
REV_AT_EPOCH   = 1557
BSTAR          = .15714E-2
MEAN_MOTION_DOT = .344717E-2
MEAN_MOTION_DDOT = 0

CCSDS_OMM_VERS = 2.0
CREATION_DATE  = 
ORIGINATOR     = 

OBJECT_NAME    = YOTSUBA-KULOVER
OBJECT_ID      = 1998-067XN
CENTER_NAME    = EARTH
REF_FRAME      = TEME
TIME_SYSTEM    = UTC
MEAN_ELEMENT_THEORY = SGP/SGP4

EPOCH          = 2025-12-28T09:39:18.209376
MEAN_MOTION    = 15.61634707
ECCENTRICITY   = .00028478
INCLINATION    = 51.6293
RA_OF_ASC_NODE = 61.1334
ARG_OF_PERICENTER = 15.7949
MEAN_ANOMALY   = 344.3133

EPHEMERIS_TYPE = 0
CLASSIFICATION_TYPE = U
NORAD_CAT_ID   = 65941
ELEMENT_SET_NO = 999
REV_AT_EPOCH   = 1230
BSTAR          = .98550048E-3
MEAN_MOTION_DOT = .86923E-3
MEAN_MOTION_DDOT = 0

CCSDS_OMM_VERS = 2.0
CREATION_DATE  = 
ORIGINATOR     = 

OBJECT_NAME    = BOTAN
OBJECT_ID      = 1998-067XP
CENTER_NAME    = EARTH
REF_FRAME      = TEME
TIME_SYSTEM    = UTC
MEAN_ELEMENT_THEORY = SGP/SGP4

EPOCH          = 2025-12-28T21:04:18.492384
MEAN_MOTION    = 15.66486827
ECCENTRICITY   = .00039241
INCLINATION    = 51.6282
RA_OF_ASC_NODE = 57.5575
ARG_OF_PERICENTER = 3.5779
MEAN_ANOMALY   = 356.5245

EPHEMERIS_TYPE = 0
CLASSIFICATION_TYPE = U
NORAD_CAT_ID   = 65942
ELEMENT_SET_NO = 999
REV_AT_EPOCH   = 1239
BSTAR          = .14400977E-2
MEAN_MOTION_DOT = .155553E-2
MEAN_MOTION_DDOT = 0

CCSDS_OMM_VERS = 2.0
CREATION_DATE  = 
ORIGINATOR     = 

OBJECT_NAME    = E-KAGAKU-1
OBJECT_ID      = 1998-067XQ
CENTER_NAME    = EARTH
REF_FRAME      = TEME
TIME_SYSTEM    = UTC
MEAN_ELEMENT_THEORY = SGP/SGP4

EPOCH          = 2025-12-28T09:39:22.529376
MEAN_MOTION    = 15.61660779
ECCENTRICITY   = .0001592
INCLINATION    = 51.6304
RA_OF_ASC_NODE = 61.1386
ARG_OF_PERICENTER = 353.4513
MEAN_ANOMALY   = 6.6460

EPHEMERIS_TYPE = 0
CLASSIFICATION_TYPE = U
NORAD_CAT_ID   = 65943
ELEMENT_SET_NO = 999
REV_AT_EPOCH   = 1230
BSTAR          = .10163455E-2
MEAN_MOTION_DOT = .89775E-3
MEAN_MOTION_DDOT = 0

CCSDS_OMM_VERS = 2.0
CREATION_DATE  = 
ORIGINATOR     = 

OBJECT_NAME    = HRC MONOBLOCK CAMERA
OBJECT_ID      = 1998-067XR
CENTER_NAME    = EARTH
REF_FRAME      = TEME
TIME_SYSTEM    = UTC
MEAN_ELEMENT_THEORY = SGP/SGP4

EPOCH          = 2025-12-28T14:13:01.108416
MEAN_MOTION    = 15.55264133
ECCENTRICITY   = .0001759
INCLINATION    = 51.6304
RA_OF_ASC_NODE = 62.3998
ARG_OF_PERICENTER = 265.7910
MEAN_ANOMALY   = 94.2880

EPHEMERIS_TYPE = 0
CLASSIFICATION_TYPE = U
NORAD_CAT_ID   = 66052
ELEMENT_SET_NO = 999
REV_AT_EPOCH   = 1130
BSTAR          = .61328E-3
MEAN_MOTION_DOT = .42061E-3
MEAN_MOTION_DDOT = 0

CCSDS_OMM_VERS = 2.0
CREATION_DATE  = 
ORIGINATOR     = 

OBJECT_NAME    = HTV-X1
OBJECT_ID      = 2025-241A
CENTER_NAME    = EARTH
REF_FRAME      = TEME
TIME_SYSTEM    = UTC
MEAN_ELEMENT_THEORY = SGP/SGP4

EPOCH          = 2025-12-28T20:32:34.982016
MEAN_MOTION    = 15.49919671
ECCENTRICITY   = .0003274
INCLINATION    = 51.6321
RA_OF_ASC_NODE = 62.6585
ARG_OF_PERICENTER = 316.0949
MEAN_ANOMALY   = 43.9780

EPHEMERIS_TYPE = 0
CLASSIFICATION_TYPE = U
NORAD_CAT_ID   = 66174
ELEMENT_SET_NO = 999
REV_AT_EPOCH   = 51
BSTAR          = .31500855E-3
MEAN_MOTION_DOT = .17513E-3
MEAN_MOTION_DDOT = 0

CCSDS_OMM_VERS = 2.0
CREATION_DATE  = 
ORIGINATOR     = 

OBJECT_NAME    = SZ-21 MODULE
OBJECT_ID      = 2025-246C
CENTER_NAME    = EARTH
REF_FRAME      = TEME
TIME_SYSTEM    = UTC
MEAN_ELEMENT_THEORY = SGP/SGP4

EPOCH          = 2025-12-28T18:28:38.146080
MEAN_MOTION    = 15.63373311
ECCENTRICITY   = .00037462
INCLINATION    = 41.4763
RA_OF_ASC_NODE = 278.1983
ARG_OF_PERICENTER = 347.8379
MEAN_ANOMALY   = 12.2370

EPHEMERIS_TYPE = 0
CLASSIFICATION_TYPE = U
NORAD_CAT_ID   = 66515
ELEMENT_SET_NO = 999
REV_AT_EPOCH   = 695
BSTAR          = .36158034E-3
MEAN_MOTION_DOT = .34087E-3
MEAN_MOTION_DDOT = 0

CCSDS_OMM_VERS = 2.0
CREATION_DATE  = 
ORIGINATOR     = 

OBJECT_NAME    = SHENZHOU-22
OBJECT_ID      = 2025-272A
CENTER_NAME    = EARTH
REF_FRAME      = TEME
TIME_SYSTEM    = UTC
MEAN_ELEMENT_THEORY = SGP/SGP4

EPOCH          = 2025-12-28T18:55:33.838176
MEAN_MOTION    = 15.59820251
ECCENTRICITY   = .00091371
INCLINATION    = 41.4673
RA_OF_ASC_NODE = 279.2286
ARG_OF_PERICENTER = 170.0134
MEAN_ANOMALY   = 190.0887

EPHEMERIS_TYPE = 0
CLASSIFICATION_TYPE = U
NORAD_CAT_ID   = 66645
ELEMENT_SET_NO = 999
REV_AT_EPOCH   = 26598
BSTAR          = .28591817E-3
MEAN_MOTION_DOT = .23392E-3
MEAN_MOTION_DDOT = 0

